{"type":"FeatureCollection","features":[{"type":"Feature","geometry":{"type":"Point","coordinates":[7.1023873417,50.7335490097]},"properties":{"name":"Abteilung für Neues Testament","strasse_bezeichnung":"Am Hof","hausnr":"1","plz":"53113","plzort":"53113 Bonn","adresse":"Am Hof 1"}},{"type":"Feature","geometry":{"type":"Point","coordinates":[7.1074323984,50.7299512553]},"properties":{"name":"Institut für das Recht der Wasser- und Entsorgungswirtschaft","strasse_bezeichnung":"Adenauerallee","hausnr":"24-42","plz":"53113","plzort":"53113 Bonn","adresse":"Adenauerallee 24-42"}},{"type":"Feature","geometry":{"type":"Point","coordinates":[7.1021457106,50.7333703236]},"properties":{"name":"Alttestamentliches Seminar","strasse_bezeichnung":"Regina-Pacis-Weg","hausnr":"1a","plz":null,"plzort":"Bonn","adresse":"Regina-Pacis-Weg 1a"}},{"type":"Feature","geometry":{"type":"Point","coordinates":[7.101900019,50.7335308834]},"properties":{"name":"Seminar für Dogmatik und Theologische Propädeutik","strasse_bezeichnung":"Regina-Pacis-Weg","hausnr":"1a","plz":"53113","plzort":"53113 Bonn","adresse":"Regina-Pacis-Weg 1a"}},{"type":"Feature","geometry":{"type":"Point","coordinates":[7.1027464385,50.7338491583]},"properties":{"name":"Institut für Anglistik, Amerikanistik und Keltologie","strasse_bezeichnung":"Regina-Pacis-Weg","hausnr":"5","plz":"53113","plzort":"53113 Bonn","adresse":"Regina-Pacis-Weg 5"}},{"type":"Feature","geometry":{"type":"Point","coordinates":[7.1018463196,50.7333697834]},"properties":{"name":"Fundamentaltheologisches Seminar","strasse_bezeichnung":"Regina-Pacis-Weg","hausnr":"1a","plz":"53113","plzort":"53113 Bonn","adresse":"Regina-Pacis-Weg 1a"}},{"type":"Feature","geometry":{"type":"Point","coordinates":[7.101656103,50.7333802926]},"properties":{"name":"Institut für Germanistik, Vergleichende Literatur- und Kulturwissenschaft","strasse_bezeichnung":"Am Hof","hausnr":"1","plz":null,"plzort":"Bonn","adresse":"Am Hof 1"}},{"type":"Feature","geometry":{"type":"Point","coordinates":[7.1016106356,50.7335282702]},"properties":{"name":"Seminar für Liturgiewissenschaft","strasse_bezeichnung":"Regina-Pacis-Weg","hausnr":"1","plz":"53113","plzort":"53113 Bonn","adresse":"Regina-Pacis-Weg 1"}},{"type":"Feature","geometry":{"type":"Point","coordinates":[7.1022200792,50.7338451569]},"properties":{"name":"Moraltheologie","strasse_bezeichnung":"Regina-Pacis-Weg","hausnr":"1a","plz":"53113","plzort":"53113 Bonn","adresse":"Regina-Pacis-Weg 1a"}},{"type":"Feature","geometry":{"type":"Point","coordinates":[7.1023905726,50.7338343479]},"properties":{"name":"Neutestamentliches Seminar","strasse_bezeichnung":"Regina-Pacis-Weg","hausnr":"1a","plz":"53113","plzort":"53113 Bonn","adresse":"Regina-Pacis-Weg 1a"}},{"type":"Feature","geometry":{"type":"Point","coordinates":[7.1020593054,50.7337154908]},"properties":{"name":"Kunsthistorisches Institut","strasse_bezeichnung":"Regina-Pacis-Weg","hausnr":"1","plz":"53113","plzort":"53113 Bonn","adresse":"Regina-Pacis-Weg 1"}},{"type":"Feature","geometry":{"type":"Point","coordinates":[7.1023834235,50.73372235]},"properties":{"name":"Seminar für Religionspädagogik und Homiletik","strasse_bezeichnung":"Regina-Pacis-Weg","hausnr":"1","plz":"53113","plzort":"53113 Bonn","adresse":"Regina-Pacis-Weg 1"}},{"type":"Feature","geometry":{"type":"Point","coordinates":[7.1077378387,50.729631025]},"properties":{"name":"Juristisches Seminar","strasse_bezeichnung":"Adenauerallee","hausnr":"24-42","plz":"53113","plzort":"53113 Bonn","adresse":"Adenauerallee 24-42"}},{"type":"Feature","geometry":{"type":"Point","coordinates":[7.1076915816,50.7295692919]},"properties":{"name":"Kriminologisches Seminar","strasse_bezeichnung":"Adenauerallee","hausnr":"24-42","plz":"53113","plzort":"53113 Bonn","adresse":"Adenauerallee 24-42"}},{"type":"Feature","geometry":{"type":"Point","coordinates":[7.1080541008,50.7295684347]},"properties":{"name":"Rechtsphilosophisches Seminar","strasse_bezeichnung":"Adenauerallee","hausnr":"24-42","plz":"53113","plzort":"53113 Bonn","adresse":"Adenauerallee 24-42"}},{"type":"Feature","geometry":{"type":"Point","coordinates":[7.106275411,50.7296627881]},"properties":{"name":"Institut für Politische Wissenschaft und Soziologie","strasse_bezeichnung":"Lennéstraße","hausnr":"25-27","plz":"53113","plzort":"53113 Bonn","adresse":"Lennéstraße 25-27"}},{"type":"Feature","geometry":{"type":"Point","coordinates":[7.0918950962,50.726329664]},"properties":{"name":"Geographisches Institut","strasse_bezeichnung":"Meckenheimer Allee","hausnr":"166","plz":"53115","plzort":"53115 Bonn","adresse":"Meckenheimer Allee 166"}},{"type":"Feature","geometry":{"type":"Point","coordinates":[7.1017573573,50.733623001]},"properties":{"name":"Seminar für Pastoraltheologie","strasse_bezeichnung":"Am Hof","hausnr":"3","plz":"53113","plzort":"53113 Bonn","adresse":"Am Hof 3"}},{"type":"Feature","geometry":{"type":"Point","coordinates":[7.1020124622,50.7329528977]},"properties":{"name":"Dogmatisches Seminar","strasse_bezeichnung":"Regina-Pacis-Weg","hausnr":"1a","plz":"53113","plzort":"53113 Bonn","adresse":"Regina-Pacis-Weg 1a"}},{"type":"Feature","geometry":{"type":"Point","coordinates":[7.0904280214,50.7264780662]},"properties":{"name":"Universitätsinstitute in der Nußallee","strasse_bezeichnung":"Nußallee","hausnr":null,"plz":"53115","plzort":"53115 Bonn","adresse":"Nußallee"}},{"type":"Feature","geometry":{"type":"Point","coordinates":[7.1077959335,50.7295035382]},"properties":{"name":"Zentrum für Europäisches Wirtschaftsrecht","strasse_bezeichnung":"Adenauerallee","hausnr":"24-42","plz":"53113","plzort":"53113 Bonn","adresse":"Adenauerallee 24-42"}},{"type":"Feature","geometry":{"type":"Point","coordinates":[7.1037413877,50.7019518972]},"properties":{"name":"Chirurgisches Zentrum","strasse_bezeichnung":"Venusberg-Campus","hausnr":"1","plz":"53127","plzort":"53127 Bonn","adresse":"Venusberg-Campus 1"}},{"type":"Feature","geometry":{"type":"Point","coordinates":[7.1044062139,50.6985159928]},"properties":{"name":"Radiologische Klinik","strasse_bezeichnung":"Venusberg-Campus","hausnr":"1","plz":"53127","plzort":"53127 Bonn","adresse":"Venusberg-Campus 1"}},{"type":"Feature","geometry":{"type":"Point","coordinates":[7.1015480457,50.7042294551]},"properties":{"name":"Universitäts-Augenklinik","strasse_bezeichnung":"Ernst-Abbe-Straße","hausnr":"2","plz":"53127","plzort":"53127 Bonn","adresse":"Ernst-Abbe-Straße 2"}},{"type":"Feature","geometry":{"type":"Point","coordinates":[7.1210871706,50.7202339412]},"properties":{"name":"Bonn-Aachen International Center for Information Technology (B-IT)","strasse_bezeichnung":"Dahlmannstraße","hausnr":"2","plz":"53113","plzort":"53113 Bonn","adresse":"Dahlmannstraße 2"}},{"type":"Feature","geometry":{"type":"Point","coordinates":[7.092960655,50.7247939168]},"properties":{"name":"Botanische Gärten","strasse_bezeichnung":"Meckenheimer Allee","hausnr":"171","plz":"53115","plzort":"53115 Bonn","adresse":"Meckenheimer Allee 171"}},{"type":"Feature","geometry":{"type":"Point","coordinates":[7.0891988589,50.7268607814]},"properties":{"name":"Anatomisches Institut","strasse_bezeichnung":"Nußallee","hausnr":"10","plz":"53115","plzort":"53115 Bonn","adresse":"Nußallee 10"}},{"type":"Feature","geometry":{"type":"Point","coordinates":[7.0871234619,50.7273594278]},"properties":{"name":"Institut für Geodäsie und Geoinformationen","strasse_bezeichnung":"Nußallee","hausnr":"15-17","plz":"53115","plzort":"53115 Bonn","adresse":"Nußallee 15-17"}},{"type":"Feature","geometry":{"type":"Point","coordinates":[7.0900979266,50.7259047172]},"properties":{"name":"Institut für Landtechnik (ILT)","strasse_bezeichnung":"Nußallee","hausnr":"5","plz":"53115","plzort":"53115 Bonn","adresse":"Nußallee 5"}},{"type":"Feature","geometry":{"type":"Point","coordinates":[7.0907251296,50.7260786425]},"properties":{"name":"Institut für Pharmazeutische Biologie","strasse_bezeichnung":"Nußallee","hausnr":"6","plz":"53115","plzort":"53115 Bonn","adresse":"Nußallee 6"}},{"type":"Feature","geometry":{"type":"Point","coordinates":[7.0885468371,50.7274204949]},"properties":{"name":"Physikalisches Institut","strasse_bezeichnung":"Nußallee","hausnr":"12","plz":"53115","plzort":"53115 Bonn","adresse":"Nußallee 12"}},{"type":"Feature","geometry":{"type":"Point","coordinates":[7.0870514943,50.7281018476]},"properties":{"name":"Helmholtz-Institut für Strahlen- und Kernphysik","strasse_bezeichnung":"Nußallee","hausnr":"14-16","plz":null,"plzort":"Bonn","adresse":"Nußallee 14-16"}},{"type":"Feature","geometry":{"type":"Point","coordinates":[7.1020804382,50.7332581112]},"properties":{"name":"Institut für Kirchengeschichte","strasse_bezeichnung":"Regina-Pacis-Weg","hausnr":"1a","plz":"53113","plzort":"53113 Bonn","adresse":"Regina-Pacis-Weg 1a"}},{"type":"Feature","geometry":{"type":"Point","coordinates":[7.1019276583,50.7339111556]},"properties":{"name":"Institut für Klassische und Romanische Philologie","strasse_bezeichnung":"Am Hof","hausnr":"1","plz":"53113","plzort":"53113 Bonn","adresse":"Am Hof 1"}},{"type":"Feature","geometry":{"type":"Point","coordinates":[7.0882667116,50.7248337826]},"properties":{"name":"Institut für Genetik","strasse_bezeichnung":"Karlrobert-Kreiten-Straße","hausnr":"13","plz":"53115","plzort":"53115 Bonn","adresse":"Karlrobert-Kreiten-Straße 13"}},{"type":"Feature","geometry":{"type":"Point","coordinates":[7.1295131438,50.7061583756]},"properties":{"name":"Institut für Informatik","strasse_bezeichnung":"Friedrich-Ebert-Allee","hausnr":"144","plz":"53113","plzort":"53113 Bonn","adresse":"Friedrich-Ebert-Allee 144"}},{"type":"Feature","geometry":{"type":"Point","coordinates":[7.0888022854,50.7265740303]},"properties":{"name":"Institut für Physiologie II","strasse_bezeichnung":"Nußallee","hausnr":"10","plz":"53115","plzort":"53115 Bonn","adresse":"Nußallee 10"}},{"type":"Feature","geometry":{"type":"Point","coordinates":[7.107600414,50.7301944751]},"properties":{"name":"Institut für Deutsche und rheinische Rechtsgeschichte","strasse_bezeichnung":"Adenauerallee","hausnr":"24-42","plz":"53113","plzort":"53113 Bonn","adresse":"Adenauerallee 24-42"}},{"type":"Feature","geometry":{"type":"Point","coordinates":[7.1080462338,50.7293317388]},"properties":{"name":"Institut für Handels- und Wirtschaftsrecht","strasse_bezeichnung":"Adenauerallee","hausnr":"24-42","plz":"53113","plzort":"53113 Bonn","adresse":"Adenauerallee 24-42"}},{"type":"Feature","geometry":{"type":"Point","coordinates":[7.1079112349,50.7292391698]},"properties":{"name":"Institut für Internationales Privatrecht und Rechtsvergleichung","strasse_bezeichnung":"Adenauerallee","hausnr":"24-42","plz":"53113","plzort":"53113 Bonn","adresse":"Adenauerallee 24-42"}},{"type":"Feature","geometry":{"type":"Point","coordinates":[7.1078562728,50.7294117551]},"properties":{"name":"Institut für Römisches Recht und Vergleichende Rechtsgeschichte","strasse_bezeichnung":"Adenauerallee","hausnr":"24-42","plz":"53113","plzort":"53113 Bonn","adresse":"Adenauerallee 24-42"}},{"type":"Feature","geometry":{"type":"Point","coordinates":[7.1078809195,50.7296638977]},"properties":{"name":"Institut für Steuerrecht","strasse_bezeichnung":"Adenauerallee","hausnr":"24-42","plz":"53113","plzort":"53113 Bonn","adresse":"Adenauerallee 24-42"}},{"type":"Feature","geometry":{"type":"Point","coordinates":[7.107625009,50.7300284443]},"properties":{"name":"Institut für Strafrecht","strasse_bezeichnung":"Adenauerallee","hausnr":"24-42","plz":"53113","plzort":"53113 Bonn","adresse":"Adenauerallee 24-42"}},{"type":"Feature","geometry":{"type":"Point","coordinates":[7.1074948086,50.7300348598]},"properties":{"name":"Institut für Völkerrecht","strasse_bezeichnung":"Adenauerallee","hausnr":"24-42","plz":"53113","plzort":"53113 Bonn","adresse":"Adenauerallee 24-42"}},{"type":"Feature","geometry":{"type":"Point","coordinates":[7.1072897071,50.7301529017]},"properties":{"name":"Institut für deutsches und Internationales Zivilverfahrensrecht","strasse_bezeichnung":"Adenauerallee","hausnr":"24-42","plz":"53113","plzort":"53113 Bonn","adresse":"Adenauerallee 24-42"}},{"type":"Feature","geometry":{"type":"Point","coordinates":[7.1064810932,50.6984892141]},"properties":{"name":"Institut für Hygiene und Öffentliche Gesundheit","strasse_bezeichnung":"Venusberg-Campus","hausnr":"1","plz":"53127","plzort":"53127 Bonn","adresse":"Venusberg-Campus 1"}},{"type":"Feature","geometry":{"type":"Point","coordinates":[7.106779474,50.6982903947]},"properties":{"name":"Institut für Medizinische Mikrobiologie und Immunologie und Parasitologie","strasse_bezeichnung":"Venusberg-Campus","hausnr":"1","plz":"53127","plzort":"53127 Bonn","adresse":"Venusberg-Campus 1"}},{"type":"Feature","geometry":{"type":"Point","coordinates":[7.1067433054,50.698506618]},"properties":{"name":"Institut für Virologie","strasse_bezeichnung":"Venusberg-Campus","hausnr":"1","plz":"53127","plzort":"53127 Bonn","adresse":"Venusberg-Campus 1"}},{"type":"Feature","geometry":{"type":"Point","coordinates":[7.1047553771,50.6955032929]},"properties":{"name":"Institut für Neuropathologie","strasse_bezeichnung":"Venusberg-Campus","hausnr":"1","plz":"53127","plzort":"53127 Bonn","adresse":"Venusberg-Campus 1"}},{"type":"Feature","geometry":{"type":"Point","coordinates":[7.0912391875,50.725758867]},"properties":{"name":"Nees-Institut für Biodiversität der Pflanzen der Universität Bonn","strasse_bezeichnung":"Meckenheimer Allee","hausnr":"170","plz":"53115","plzort":"53115 Bonn","adresse":"Meckenheimer Allee 170"}},{"type":"Feature","geometry":{"type":"Point","coordinates":[7.0858420086,50.7280480379]},"properties":{"name":"Institut für Lebensmittel- und Ressourcenökonomik der Universität Bonn (ILR)","strasse_bezeichnung":"Nußallee","hausnr":"21","plz":"53115","plzort":"53115 Bonn","adresse":"Nußallee 21"}},{"type":"Feature","geometry":{"type":"Point","coordinates":[7.0862537738,50.7285973901]},"properties":{"name":"Institut für Zoologie","strasse_bezeichnung":"Endenicher Allee","hausnr":"11","plz":"53115","plzort":"53115 Bonn","adresse":"Endenicher Allee 11"}},{"type":"Feature","geometry":{"type":"Point","coordinates":[7.0860948983,50.7284632074]},"properties":{"name":"Institut für Ernährungs- und Lebensmittelwissenschaften","strasse_bezeichnung":"Endenicher Allee","hausnr":"11-13","plz":null,"plzort":"Bonn","adresse":"Endenicher Allee 11-13"}},{"type":"Feature","geometry":{"type":"Point","coordinates":[7.0847438937,50.7281383266]},"properties":{"name":"Institut für Tierwissenschaften (ITW)","strasse_bezeichnung":"Endenicher Allee","hausnr":"15","plz":"53115","plzort":"53115 Bonn","adresse":"Endenicher Allee 15"}},{"type":"Feature","geometry":{"type":"Point","coordinates":[7.0840867953,50.7284726546]},"properties":{"name":"Institut für Angewandte Mathemathik","strasse_bezeichnung":"Endenicher Allee","hausnr":"60","plz":"53115","plzort":"53115 Bonn","adresse":"Endenicher Allee 60"}},{"type":"Feature","geometry":{"type":"Point","coordinates":[7.0882838227,50.7285177339]},"properties":{"name":"Institut für Angewandte Physik","strasse_bezeichnung":"Wegelerstraße","hausnr":"8","plz":"53115","plzort":"53115 Bonn","adresse":"Wegelerstraße 8"}},{"type":"Feature","geometry":{"type":"Point","coordinates":[7.0892878922,50.7280330232]},"properties":{"name":"Institut für Physikalische und Theoretische Chemie","strasse_bezeichnung":"Wegelerstraße","hausnr":"12","plz":"53115","plzort":"53115 Bonn","adresse":"Wegelerstraße 12"}},{"type":"Feature","geometry":{"type":"Point","coordinates":[7.0719957924,50.7341248679]},"properties":{"name":"Institut für Anorganische Chemie","strasse_bezeichnung":"Gerhard-Domagk-Straße","hausnr":"1","plz":"53121","plzort":"53121 Bonn","adresse":"Gerhard-Domagk-Straße 1"}},{"type":"Feature","geometry":{"type":"Point","coordinates":[7.0720997847,50.7339098942]},"properties":{"name":"Kekulé-Institut für Organische Chemie und Biochemie","strasse_bezeichnung":"Gerhard-Domagk-Straße","hausnr":"1","plz":"53121","plzort":"53121 Bonn","adresse":"Gerhard-Domagk-Straße 1"}},{"type":"Feature","geometry":{"type":"Point","coordinates":[7.1072906132,50.7310530316]},"properties":{"name":"Institut für Arbeitsrecht und Recht der Sozialen Sicherheit","strasse_bezeichnung":"Adenauerallee","hausnr":"8a","plz":"53113","plzort":"53113 Bonn","adresse":"Adenauerallee 8a"}},{"type":"Feature","geometry":{"type":"Point","coordinates":[7.0692890069,50.7299211444]},"properties":{"name":"Argelander-Institut für Astronomie (AlfA)","strasse_bezeichnung":"Auf dem Hügel","hausnr":"71","plz":"53121","plzort":"53121 Bonn","adresse":"Auf dem Hügel 71"}},{"type":"Feature","geometry":{"type":"Point","coordinates":[7.0707577859,50.7311452135]},"properties":{"name":"Meteorologisches Institut","strasse_bezeichnung":"Auf dem Hügel","hausnr":"20","plz":"53121","plzort":"53121 Bonn","adresse":"Auf dem Hügel 20"}},{"type":"Feature","geometry":{"type":"Point","coordinates":[7.0923887726,50.7221822693]},"properties":{"name":"Institut für Zelluläre und Molekulare Botanik (IZMB)","strasse_bezeichnung":"Kirschallee","hausnr":"1","plz":"53115","plzort":"53115 Bonn","adresse":"Kirschallee 1"}},{"type":"Feature","geometry":{"type":"Point","coordinates":[7.0728746627,50.7304740379]},"properties":{"name":"Institut für Evolutionsbiologie und Zooökologie","strasse_bezeichnung":"An der Immenburg","hausnr":"1","plz":"53121","plzort":"53121 Bonn","adresse":"An der Immenburg 1"}},{"type":"Feature","geometry":{"type":"Point","coordinates":[7.0732348797,50.7318101472]},"properties":{"name":"Pharmazeutisches Institut","strasse_bezeichnung":"An der Immenburg","hausnr":"4","plz":"53121","plzort":"53121 Bonn","adresse":"An der Immenburg 4"}},{"type":"Feature","geometry":{"type":"Point","coordinates":[7.0894794098,50.7262331055]},"properties":{"name":"Institut für Nutzpflanzenwissenschaften und Ressourcenschutz (INRES)","strasse_bezeichnung":"Nußallee","hausnr":"9","plz":"53115","plzort":"53115 Bonn","adresse":"Nußallee 9"}},{"type":"Feature","geometry":{"type":"Point","coordinates":[7.0837554643,50.7283375468]},"properties":{"name":"Mathematisches Institut","strasse_bezeichnung":"Endenicher Allee","hausnr":"60","plz":"53115","plzort":"53115 Bonn","adresse":"Endenicher Allee 60"}},{"type":"Feature","geometry":{"type":"Point","coordinates":[7.1014274767,50.7389947061]},"properties":{"name":"Institut für Rechtsmedizin","strasse_bezeichnung":"Stiftsplatz","hausnr":"12","plz":"53111","plzort":"53111 Bonn","adresse":"Stiftsplatz 12"}},{"type":"Feature","geometry":{"type":"Point","coordinates":[7.0885124365,50.7247149182]},"properties":{"name":"Institut für Molekulare Physiologie und Biotechnologie der Pflanzen (IMBIO)","strasse_bezeichnung":"Karlrobert-Kreiten-Straße","hausnr":"13","plz":"53115","plzort":"53115 Bonn","adresse":"Karlrobert-Kreiten-Straße 13"}},{"type":"Feature","geometry":{"type":"Point","coordinates":[7.0933595943,50.745696268]},"properties":{"name":"Institut für Psychologie","strasse_bezeichnung":"Kaiser-Karl-Ring","hausnr":"9","plz":"53117","plzort":"53117 Bonn","adresse":"Kaiser-Karl-Ring 9"}},{"type":"Feature","geometry":{"type":"Point","coordinates":[7.1017167681,50.7009168498]},"properties":{"name":"Universitätsklinikum Bonn","strasse_bezeichnung":"Venusberg-Campus","hausnr":"1","plz":"53127","plzort":"53127 Bonn","adresse":"Venusberg-Campus 1"}},{"type":"Feature","geometry":{"type":"Point","coordinates":[7.0974574713,50.7278887367]},"properties":{"name":"Alte Sternwarte","strasse_bezeichnung":"Poppelsdorfer Allee","hausnr":"47","plz":"53115","plzort":"53115 Bonn","adresse":"Poppelsdorfer Allee 47"}},{"type":"Feature","geometry":{"type":"Point","coordinates":[7.0923796278,50.7249461755]},"properties":{"name":"Mineralogisches Museum","strasse_bezeichnung":"Meckenheimer Allee","hausnr":"169","plz":"53115","plzort":"53115 Bonn","adresse":"Meckenheimer Allee 169"}},{"type":"Feature","geometry":{"type":"Point","coordinates":[7.1085703723,50.7311889885]},"properties":{"name":"Universitäts-und Landesbibliothek","strasse_bezeichnung":"Adenauerallee","hausnr":"39-41","plz":"53113","plzort":"53113 Bonn","adresse":"Adenauerallee 39-41"}},{"type":"Feature","geometry":{"type":"Point","coordinates":[7.0772158166,50.6946505585]},"properties":{"name":"Geodätisches Übungsfeld der Universität Bonn","strasse_bezeichnung":"Röttgener Straße","hausnr":null,"plz":"53127","plzort":"53127 Bonn","adresse":"Röttgener Straße"}},{"type":"Feature","geometry":{"type":"Point","coordinates":[7.1030007265,50.6966313467]},"properties":{"name":"Institut für Molekulare Psychatrie","strasse_bezeichnung":"Venusberg-Campus","hausnr":"1","plz":"53127","plzort":"53127 Bonn","adresse":"Venusberg-Campus 1"}},{"type":"Feature","geometry":{"type":"Point","coordinates":[7.0885139931,50.7286874761]},"properties":{"name":"Institut für Numerische Simulation","strasse_bezeichnung":"Wegelerstraße","hausnr":"6","plz":"53115","plzort":"53115 Bonn","adresse":"Wegelerstraße 6"}},{"type":"Feature","geometry":{"type":"Point","coordinates":[7.1042971061,50.6956874502]},"properties":{"name":"Institut für Zelluläre Neurowissenschaften","strasse_bezeichnung":"Venusberg-Campus","hausnr":"1","plz":"53127","plzort":"53127 Bonn","adresse":"Venusberg-Campus 1"}},{"type":"Feature","geometry":{"type":"Point","coordinates":[7.1017190943,50.7337683215]},"properties":{"name":"Arbeitsbereich Philosophie und Theorie der Religionen","strasse_bezeichnung":"Am Hof","hausnr":"1","plz":null,"plzort":"Bonn","adresse":"Am Hof 1"}},{"type":"Feature","geometry":{"type":"Point","coordinates":[7.1015740018,50.7336428305]},"properties":{"name":"Institut für Philosophie","strasse_bezeichnung":"Am Hof","hausnr":"1","plz":"53113","plzort":"53113 Bonn","adresse":"Am Hof 1"}},{"type":"Feature","geometry":{"type":"Point","coordinates":[7.1065315634,50.7353988205]},"properties":{"name":"Universitätsclub Bonn","strasse_bezeichnung":"Konviktstraße","hausnr":"9","plz":null,"plzort":"Bonn","adresse":"Konviktstraße 9"}},{"type":"Feature","geometry":{"type":"Point","coordinates":[7.1037438521,50.7341660062]},"properties":{"name":"Universität Bonn - Rheinische Friedrich-Wilhelms Universität Bonn","strasse_bezeichnung":"Regina-Pacis-Weg","hausnr":"3","plz":"53113","plzort":"53113 Bonn","adresse":"Regina-Pacis-Weg 3"}},{"type":"Feature","geometry":{"type":"Point","coordinates":[7.104743657,50.7017681414]},"properties":{"name":"Medizinische Klinik I - Allgemeine Innere Medizin mit den Schwerpunkten Gastroenterologie - Hepatologie, Nephrologie, Rheumatologie, Infektiologie, Endokrinologie und Diabetologie","strasse_bezeichnung":"Venusberg-Campus","hausnr":"1","plz":"53127","plzort":"53127 Bonn","adresse":"Venusberg-Campus 1"}},{"type":"Feature","geometry":{"type":"Point","coordinates":[7.1064729035,50.6999510154]},"properties":{"name":"Klinik und Poliklinik für Gynäkologie","strasse_bezeichnung":"Venusberg-Campus","hausnr":"1","plz":"53127","plzort":"53127 Bonn","adresse":"Venusberg-Campus 1"}},{"type":"Feature","geometry":{"type":"Point","coordinates":[7.1011595147,50.7042416139]},"properties":{"name":"Augenklinik und Poliklinik","strasse_bezeichnung":"Venusberg-Campus","hausnr":"1","plz":"53127","plzort":"53127 Bonn","adresse":"Venusberg-Campus 1"}},{"type":"Feature","geometry":{"type":"Point","coordinates":[7.101982156,50.703520555]},"properties":{"name":"Klinik und Poliklinik für Hals-, Nasen- und Ohrenheilkunde / Chirurgie","strasse_bezeichnung":"Venusberg-Campus","hausnr":"1","plz":"53127","plzort":"53127 Bonn","adresse":"Venusberg-Campus 1"}},{"type":"Feature","geometry":{"type":"Point","coordinates":[7.1012209653,50.7404175756]},"properties":{"name":"Zentrum für Zahn-, Mund,- und Kieferheilkunde","strasse_bezeichnung":"Welschnonnenstraße","hausnr":"17","plz":"53111","plzort":"53111 Bonn","adresse":"Welschnonnenstraße 17"}},{"type":"Feature","geometry":{"type":"Point","coordinates":[7.1009616156,50.7406788208]},"properties":{"name":"Klinik für Mund-, Kiefer- und plastische Gesichtschirurgie","strasse_bezeichnung":"Welschnonnenstraße","hausnr":"17","plz":"53111","plzort":"53111 Bonn","adresse":"Welschnonnenstraße 17"}},{"type":"Feature","geometry":{"type":"Point","coordinates":[7.1026014047,50.7023407809]},"properties":{"name":"Klinik für Herzchirurgie","strasse_bezeichnung":"Venusberg-Campus","hausnr":"1","plz":"53127","plzort":"53127 Bonn","adresse":"Venusberg-Campus 1"}},{"type":"Feature","geometry":{"type":"Point","coordinates":[7.1024786215,50.7016748053]},"properties":{"name":"Cardiac Arrest Center Interdisziplinäres Notfallzentrum (INZ)","strasse_bezeichnung":"Venusberg-Campus","hausnr":"1","plz":"53127","plzort":"53127 Bonn","adresse":"Venusberg-Campus 1"}},{"type":"Feature","geometry":{"type":"Point","coordinates":[7.1048928063,50.7015107443]},"properties":{"name":"Medizinische Klinik II - Innere Medizin mit den Schwerpunkten Kardiologie, Pneumologie, Angiologie","strasse_bezeichnung":"Venusberg-Campus","hausnr":"1","plz":"53127","plzort":"53127 Bonn","adresse":"Venusberg-Campus 1"}},{"type":"Feature","geometry":{"type":"Point","coordinates":[7.1032586283,50.6951492733]},"properties":{"name":"Klinik und Poliklinik für Psychatrie und Psychotherapie","strasse_bezeichnung":"Venusberg-Campus","hausnr":"1","plz":"53127","plzort":"53127 Bonn","adresse":"Venusberg-Campus 1"}},{"type":"Feature","geometry":{"type":"Point","coordinates":[7.1031309717,50.6957177172]},"properties":{"name":"Klinik für Neurologie, Psychiatrie und Psychosomatik (NPP)","strasse_bezeichnung":"Venusberg-Campus","hausnr":"1","plz":"53127","plzort":"53127 Bonn","adresse":"Venusberg-Campus 1"}},{"type":"Feature","geometry":{"type":"Point","coordinates":[7.1014892823,50.7025499818]},"properties":{"name":"Klinik und Poliklinik für Dermatologie und Allergologie","strasse_bezeichnung":"Venusberg-Campus","hausnr":"1","plz":"53127","plzort":"53127 Bonn","adresse":"Venusberg-Campus 1"}},{"type":"Feature","geometry":{"type":"Point","coordinates":[7.1039325749,50.7031637456]},"properties":{"name":"Klinik für Nuklearmedizin","strasse_bezeichnung":"Venusberg-Campus","hausnr":"1","plz":"53127","plzort":"53127 Bonn","adresse":"Venusberg-Campus 1"}},{"type":"Feature","geometry":{"type":"Point","coordinates":[7.0857648713,50.7257984301]},"properties":{"name":"Campus Poppelsdorf","strasse_bezeichnung":null,"hausnr":null,"plz":null,"plzort":null,"adresse":null}},{"type":"Feature","geometry":{"type":"Point","coordinates":[7.0913505321,50.725968345]},"properties":{"name":"Institut für Mikrobiologie und Biotechnologie","strasse_bezeichnung":"Meckenheimer Allee","hausnr":"168","plz":"53115","plzort":"53115 Bonn","adresse":"Meckenheimer Allee 168"}},{"type":"Feature","geometry":{"type":"Point","coordinates":[7.0985177647,50.734984829]},"properties":{"name":"Max-Planck-Institut für Mathematik (MPIM)","strasse_bezeichnung":"Vivatsgasse","hausnr":"7","plz":"53111","plzort":"53111 Bonn","adresse":"Vivatsgasse 7"}},{"type":"Feature","geometry":{"type":"Point","coordinates":[7.1263749546,50.7170366625]},"properties":{"name":"Max-Planck-Institut zur Erforschung von Gemeinschaftsgütern","strasse_bezeichnung":"Kurt-Schumacher-Straße","hausnr":"10","plz":"53113","plzort":"53113 Bonn","adresse":"Kurt-Schumacher-Straße 10"}},{"type":"Feature","geometry":{"type":"Point","coordinates":[7.1195036532,50.7148781272]},"properties":{"name":"Zentrum für Entwicklungsforschung (ZEF)","strasse_bezeichnung":"Genscherallee","hausnr":"3","plz":"53113","plzort":"53113 Bonn","adresse":"Genscherallee 3"}},{"type":"Feature","geometry":{"type":"Point","coordinates":[7.1195036532,50.7148781272]},"properties":{"name":"Zentrum für Europäische Integrationsforschung (ZEI)","strasse_bezeichnung":"Genscherallee","hausnr":"3","plz":"53113","plzort":"53113 Bonn","adresse":"Genscherallee 3"}},{"type":"Feature","geometry":{"type":"Point","coordinates":[7.0696144157,50.7302601885]},"properties":{"name":"Max-Planck-Institut für Radioastronomie (MPIfR)","strasse_bezeichnung":"Auf dem Hügel","hausnr":"69","plz":"53121","plzort":"53121 Bonn","adresse":"Auf dem Hügel 69"}},{"type":"Feature","geometry":{"type":"Point","coordinates":[7.1037003989,50.6967916245]},"properties":{"name":"Life & Brain","strasse_bezeichnung":"Venusberg-Campus","hausnr":"1","plz":"53127","plzort":"53127 Bonn","adresse":"Venusberg-Campus 1"}},{"type":"Feature","geometry":{"type":"Point","coordinates":[7.1080823011,50.7292143859]},"properties":{"name":"Institut für angewandte Mikroökonomik","strasse_bezeichnung":"Adenauerallee","hausnr":"24-42","plz":"53113","plzort":"53113 Bonn","adresse":"Adenauerallee 24-42"}},{"type":"Feature","geometry":{"type":"Point","coordinates":[7.107591779,50.7301064402]},"properties":{"name":"Institut für Finanzmarktökonomie und Statistik","strasse_bezeichnung":"Adenauerallee","hausnr":"24-42","plz":"53113","plzort":"53113 Bonn","adresse":"Adenauerallee 24-42"}},{"type":"Feature","geometry":{"type":"Point","coordinates":[7.1079562221,50.7296125878]},"properties":{"name":"Institut für Öffentliches Recht","strasse_bezeichnung":"Adenauerallee","hausnr":"24-42","plz":"53113","plzort":"53113 Bonn","adresse":"Adenauerallee 24-42"}},{"type":"Feature","geometry":{"type":"Point","coordinates":[7.1014197768,50.7317577473]},"properties":{"name":"Institut für Makroökonomik und Ökonometrie","strasse_bezeichnung":"Kaiserplatz","hausnr":"7-9","plz":null,"plzort":"Bonn","adresse":"Kaiserplatz 7-9"}},{"type":"Feature","geometry":{"type":"Point","coordinates":[7.102000305,50.7320742432]},"properties":{"name":"Bonn Graduate School of Economics","strasse_bezeichnung":"Kaiserstraße","hausnr":"1","plz":"53113","plzort":"53113 Bonn","adresse":"Kaiserstraße 1"}},{"type":"Feature","geometry":{"type":"Point","coordinates":[7.10719502,50.7314128445]},"properties":{"name":"Institut für Orient- und Asienwissenschaften","strasse_bezeichnung":"Adenauerallee","hausnr":"4-6","plz":"53113","plzort":"53113 Bonn","adresse":"Adenauerallee 4-6"}},{"type":"Feature","geometry":{"type":"Point","coordinates":[7.1020236943,50.7330548335]},"properties":{"name":"Arbeitsstelle für Theologische Genderforschung","strasse_bezeichnung":"Regina-Pacis-Weg","hausnr":"1a","plz":"53113","plzort":"53113 Bonn","adresse":"Regina-Pacis-Weg 1a"}},{"type":"Feature","geometry":{"type":"Point","coordinates":[7.1074057113,50.7352564723]},"properties":{"name":"Institut für Geschichtswissenschaft","strasse_bezeichnung":"Konviktstraße","hausnr":"11","plz":"53113","plzort":"53113 Bonn","adresse":"Konviktstraße 11"}},{"type":"Feature","geometry":{"type":"Point","coordinates":[7.1087308406,50.7290965475]},"properties":{"name":"Rheinisches Institut für Notarrecht","strasse_bezeichnung":"Adenauerallee","hausnr":"46","plz":"53113","plzort":"53113 Bonn","adresse":"Adenauerallee 46"}},{"type":"Feature","geometry":{"type":"Point","coordinates":[7.105190307,50.7302828729]},"properties":{"name":"Institut für Sprach-, Medien- und Musikwissenschaft","strasse_bezeichnung":"Lennéstraße","hausnr":"6","plz":"53113","plzort":"53113 Bonn","adresse":"Lennéstraße 6"}},{"type":"Feature","geometry":{"type":"Point","coordinates":[7.0889367699,50.7264973861]},"properties":{"name":"Institut für Biochemie und Molekularbiologie","strasse_bezeichnung":"Nußallee","hausnr":"11","plz":"53115","plzort":"53115 Bonn","adresse":"Nußallee 11"}},{"type":"Feature","geometry":{"type":"Point","coordinates":[7.1017056808,50.7390440819]},"properties":{"name":"Institut für Patientensicherheit","strasse_bezeichnung":"Stiftsplatz","hausnr":"12","plz":"53111","plzort":"53111 Bonn","adresse":"Stiftsplatz 12"}},{"type":"Feature","geometry":{"type":"Point","coordinates":[7.1011115337,50.7023734878]},"properties":{"name":"Institut für Medizinische Biometrie, Informatik und Epidemiologie","strasse_bezeichnung":"Venusberg-Campus","hausnr":"1","plz":"53127","plzort":"53127 Bonn","adresse":"Venusberg-Campus 1"}},{"type":"Feature","geometry":{"type":"Point","coordinates":[7.1014828541,50.701799858]},"properties":{"name":"Institut für Pharmakologie und Toxikologie","strasse_bezeichnung":"Venusberg-Campus","hausnr":"1","plz":"53127","plzort":"53127 Bonn","adresse":"Venusberg-Campus 1"}},{"type":"Feature","geometry":{"type":"Point","coordinates":[7.1030336512,50.6992712242]},"properties":{"name":"Institut für Experimentelle Hämatologie und Transfusionsmedizin","strasse_bezeichnung":"Venusberg-Campus","hausnr":"1","plz":"53127","plzort":"53127 Bonn","adresse":"Venusberg-Campus 1"}},{"type":"Feature","geometry":{"type":"Point","coordinates":[7.1035101465,50.7026585683]},"properties":{"name":"Institut für Klinische Chemie und Klinische Pharmakologie","strasse_bezeichnung":"Venusberg-Campus","hausnr":"1","plz":"53127","plzort":"53127 Bonn","adresse":"Venusberg-Campus 1"}},{"type":"Feature","geometry":{"type":"Point","coordinates":[7.101495772,50.701612992]},"properties":{"name":"Institut für Angeborene Immunität","strasse_bezeichnung":"Venusberg-Campus","hausnr":"1","plz":"53127","plzort":"53127 Bonn","adresse":"Venusberg-Campus 1"}},{"type":"Feature","geometry":{"type":"Point","coordinates":[7.1036596246,50.6965283595]},"properties":{"name":"Institut für Rekonstruktive Neurobiologie","strasse_bezeichnung":"Venusberg-Campus","hausnr":"1","plz":"53127","plzort":"53127 Bonn","adresse":"Venusberg-Campus 1"}},{"type":"Feature","geometry":{"type":"Point","coordinates":[7.1019623856,50.7042849954]},"properties":{"name":"Institut für Hausarztmedizin","strasse_bezeichnung":"Venusberg-Campus","hausnr":"1","plz":"53127","plzort":"53127 Bonn","adresse":"Venusberg-Campus 1"}},{"type":"Feature","geometry":{"type":"Point","coordinates":[7.1070273822,50.6978628155]},"properties":{"name":"Klinik und Poliklinik für Palliativmedizin","strasse_bezeichnung":"Venusberg-Campus","hausnr":"1","plz":"53127","plzort":"53127 Bonn","adresse":"Venusberg-Campus 1"}},{"type":"Feature","geometry":{"type":"Point","coordinates":[7.1047856488,50.695713321]},"properties":{"name":"Neurochirurgische Klinik","strasse_bezeichnung":"Venusberg-Campus","hausnr":"1","plz":"53127","plzort":"53127 Bonn","adresse":"Venusberg-Campus 1"}},{"type":"Feature","geometry":{"type":"Point","coordinates":[7.1014695859,50.7335937359]},"properties":{"name":"Abteilung für Altes Testament","strasse_bezeichnung":"Am Hof","hausnr":"1","plz":"53113","plzort":"53113 Bonn","adresse":"Am Hof 1"}},{"type":"Feature","geometry":{"type":"Point","coordinates":[7.1018635205,50.7337109144]},"properties":{"name":"Abteilung für Kirchengeschichte","strasse_bezeichnung":"Am Hof","hausnr":"1","plz":"53113","plzort":"53113 Bonn","adresse":"Am Hof 1"}},{"type":"Feature","geometry":{"type":"Point","coordinates":[7.1020194139,50.7336122169]},"properties":{"name":"Abteilung für Systematische Theologie","strasse_bezeichnung":"Am Hof","hausnr":"1","plz":"53113","plzort":"53113 Bonn","adresse":"Am Hof 1"}},{"type":"Feature","geometry":{"type":"Point","coordinates":[7.1025882179,50.733949461]},"properties":{"name":"Abteilung für Praktische Theologie","strasse_bezeichnung":"Am Hof","hausnr":"1","plz":"53113","plzort":"53113 Bonn","adresse":"Am Hof 1"}},{"type":"Feature","geometry":{"type":"Point","coordinates":[7.1067184835,50.6990273781]},"properties":{"name":"Institut für Pathologie","strasse_bezeichnung":"Venusberg-Campus","hausnr":"1","plz":"53127","plzort":"53127 Bonn","adresse":"Venusberg-Campus 1"}},{"type":"Feature","geometry":{"type":"Point","coordinates":[7.1015244393,50.7013600644]},"properties":{"name":"Institut für Humangenetik","strasse_bezeichnung":"Venusberg-Campus","hausnr":"1","plz":"53127","plzort":"53127 Bonn","adresse":"Venusberg-Campus 1"}},{"type":"Feature","geometry":{"type":"Point","coordinates":[7.1023085024,50.7030773126]},"properties":{"name":"Zentrum für Innere Medizin","strasse_bezeichnung":"Venusberg-Campus","hausnr":"1","plz":"53127","plzort":"53127 Bonn","adresse":"Venusberg-Campus 1"}},{"type":"Feature","geometry":{"type":"Point","coordinates":[7.1195036532,50.7148781272]},"properties":{"name":"Interdisziplinäre Zentren (ILZ)","strasse_bezeichnung":"Genscherallee","hausnr":"3","plz":"53113","plzort":"53113 Bonn","adresse":"Genscherallee 3"}},{"type":"Feature","geometry":{"type":"Point","coordinates":[7.1012439409,50.7331272446]},"properties":{"name":"Seminar für Christliche Gesellschaftslehre und Pastoralsoziologie","strasse_bezeichnung":"Regina-Pacis-Weg","hausnr":"1a","plz":"53113","plzort":"53113 Bonn","adresse":"Regina-Pacis-Weg 1a"}},{"type":"Feature","geometry":{"type":"Point","coordinates":[7.1063668615,50.7316860943]},"properties":{"name":"Institut für Archäologie und Kulturanthropologie","strasse_bezeichnung":"Am Hofgarten","hausnr":"21","plz":"53113","plzort":"53113 Bonn","adresse":"Am Hofgarten 21"}},{"type":"Feature","geometry":{"type":"Point","coordinates":[7.1067140044,50.7288579832]},"properties":{"name":"Institut für Internationale Wirtschaftspolitik","strasse_bezeichnung":"Lennéstraße","hausnr":"37","plz":null,"plzort":"Bonn","adresse":"Lennéstraße 37"}},{"type":"Feature","geometry":{"type":"Point","coordinates":[7.1073670029,50.7301001618]},"properties":{"name":"Institut für Mikroökonomik","strasse_bezeichnung":"Adenauerallee","hausnr":"24-42","plz":"53113","plzort":"53113 Bonn","adresse":"Adenauerallee 24-42"}},{"type":"Feature","geometry":{"type":"Point","coordinates":[7.0711970953,50.7316338106]},"properties":{"name":"Institut für Anatomie und Zellbiologie","strasse_bezeichnung":"Ulrich-Haberland-Straße","hausnr":"61a","plz":null,"plzort":"Bonn","adresse":"Ulrich-Haberland-Straße 61a"}},{"type":"Feature","geometry":{"type":"Point","coordinates":[7.1135193173,50.7224315445]},"properties":{"name":"Zoologisches Forschungsmuseum Alexander Koenig","strasse_bezeichnung":"Adenauerallee","hausnr":"160","plz":"53113","plzort":"53113 Bonn","adresse":"Adenauerallee 160"}},{"type":"Feature","geometry":{"type":"Point","coordinates":[7.1057407674,50.7008661366]},"properties":{"name":"Eltern-Kind-Zentrum (ELKI)","strasse_bezeichnung":"Venusberg-Campus","hausnr":"1","plz":"53127","plzort":"53127 Bonn","adresse":"Venusberg-Campus 1"}},{"type":"Feature","geometry":{"type":"Point","coordinates":[7.1079562221,50.7296125878]},"properties":{"name":"Institut für Kirchenrecht","strasse_bezeichnung":"Adenauerallee","hausnr":"24-42","plz":"53113","plzort":"53113 Bonn","adresse":"Adenauerallee 24-42"}},{"type":"Feature","geometry":{"type":"Point","coordinates":[7.1080823011,50.7292143859]},"properties":{"name":"Center for Advanced Studies in Law and Economics (CASTLE)","strasse_bezeichnung":"Adenauerallee","hausnr":"24-42","plz":"53113","plzort":"53113 Bonn","adresse":"Adenauerallee 24-42"}},{"type":"Feature","geometry":{"type":"Point","coordinates":[7.1080823011,50.7292143859]},"properties":{"name":"Center for Life Sciences & Law","strasse_bezeichnung":"Adenauerallee","hausnr":"24-42","plz":"53113","plzort":"53113 Bonn","adresse":"Adenauerallee 24-42"}},{"type":"Feature","geometry":{"type":"Point","coordinates":[7.101094348,50.7026078599]},"properties":{"name":"Institut für Genomische Statistik und Bioinformatik ","strasse_bezeichnung":"Venusberg-Campus","hausnr":"1","plz":"53127","plzort":"53127 Bonn","adresse":"Venusberg-Campus 1"}},{"type":"Feature","geometry":{"type":"Point","coordinates":[7.1016398403,50.7011193968]},"properties":{"name":"Institut für Kardiovaskuläre Immunologie","strasse_bezeichnung":"Venusberg-Campus","hausnr":"1","plz":"53127","plzort":"53127 Bonn","adresse":"Venusberg-Campus 1"}},{"type":"Feature","geometry":{"type":"Point","coordinates":[7.1023793682,50.6958354228]},"properties":{"name":"Institut für Experimentelle Epileptologie und Kognitionswissenschaften","strasse_bezeichnung":"Venusberg-Campus","hausnr":"1","plz":"53127","plzort":"53127 Bonn","adresse":"Venusberg-Campus 1"}},{"type":"Feature","geometry":{"type":"Point","coordinates":[7.1018519976,50.6987176422]},"properties":{"name":"Institute for Medical Humanities","strasse_bezeichnung":"Venusberg-Campus","hausnr":"1","plz":"53127","plzort":"53127 Bonn","adresse":"Venusberg-Campus 1"}},{"type":"Feature","geometry":{"type":"Point","coordinates":[7.10365667,50.696402531]},"properties":{"name":"Institut für Physiologie I","strasse_bezeichnung":"Venusberg-Campus","hausnr":"1","plz":"53127","plzort":"53127 Bonn","adresse":"Venusberg-Campus 1"}},{"type":"Feature","geometry":{"type":"Point","coordinates":[7.1016419473,50.7012092743]},"properties":{"name":"Institut für Strukturbiologie","strasse_bezeichnung":"Venusberg-Campus","hausnr":"1","plz":"53127","plzort":"53127 Bonn","adresse":"Venusberg-Campus 1"}},{"type":"Feature","geometry":{"type":"Point","coordinates":[7.102306394,50.7029874352]},"properties":{"name":"Abteilung für Integrierte Onkologie","strasse_bezeichnung":"Venusberg-Campus","hausnr":"1","plz":"53127","plzort":"53127 Bonn","adresse":"Venusberg-Campus 1"}},{"type":"Feature","geometry":{"type":"Point","coordinates":[7.102379555,50.7016757426]},"properties":{"name":"Institut für Experimentelle Onkologie","strasse_bezeichnung":"Venusberg-Campus","hausnr":"1","plz":"53127","plzort":"53127 Bonn","adresse":"Venusberg-Campus 1"}},{"type":"Feature","geometry":{"type":"Point","coordinates":[7.0900932356,50.726471894]},"properties":{"name":"Institut für Geowissenschaften","strasse_bezeichnung":"Nußallee","hausnr":"8","plz":"53115","plzort":"53115 Bonn","adresse":"Nußallee 8"}},{"type":"Feature","geometry":{"type":"Point","coordinates":[7.07105548,50.7316351122]},"properties":{"name":"Institut für Zellbiologie","strasse_bezeichnung":"Ulrich-Haberland-Straße","hausnr":"61a","plz":null,"plzort":"Bonn","adresse":"Ulrich-Haberland-Straße 61a"}},{"type":"Feature","geometry":{"type":"Point","coordinates":[7.0872685989,50.7242411761]},"properties":{"name":"Life & Medical Sciences Institute","strasse_bezeichnung":"Carl-Troll-Straße","hausnr":"31","plz":"53115","plzort":"53115 Bonn","adresse":"Carl-Troll-Straße 31"}},{"type":"Feature","geometry":{"type":"Point","coordinates":[7.150505245,50.7039876157]},"properties":{"name":"Stiftung caesar ","strasse_bezeichnung":"Ludwig-Erhard-Allee","hausnr":"2","plz":"53175","plzort":"53175 Bonn","adresse":"Ludwig-Erhard-Allee 2"}},{"type":"Feature","geometry":{"type":"Point","coordinates":[7.1076207679,50.7298486906]},"properties":{"name":"Institut für Deutsches, Europäisches und Internationales Familienrecht","strasse_bezeichnung":"Adenauerallee","hausnr":"24-42","plz":"53113","plzort":"53113 Bonn","adresse":"Adenauerallee 24-42"}},{"type":"Feature","geometry":{"type":"Point","coordinates":[7.1034845333,50.7018644327]},"properties":{"name":"Institut für Experimentelle Immunologie","strasse_bezeichnung":"Venusberg-Campus","hausnr":"1","plz":"53127","plzort":"53127 Bonn","adresse":"Venusberg-Campus 1"}},{"type":"Feature","geometry":{"type":"Point","coordinates":[7.1040505457,50.7043149053]},"properties":{"name":"Institut für Patientensicherheit","strasse_bezeichnung":"Venusberg-Campus","hausnr":"1","plz":"53127","plzort":"53127 Bonn","adresse":"Venusberg-Campus 1"}},{"type":"Feature","geometry":{"type":"Point","coordinates":[7.1020107742,50.7328809961]},"properties":{"name":"Institut für Kirchenrecht","strasse_bezeichnung":"Regina-Pacis-Weg","hausnr":"1a","plz":"53113","plzort":"53113 Bonn","adresse":"Regina-Pacis-Weg 1a"}},{"type":"Feature","geometry":{"type":"Point","coordinates":[7.1022009255,50.7337141515]},"properties":{"name":"Institut für Sprachen","strasse_bezeichnung":"Regina-Pacis-Weg","hausnr":"1","plz":"53113","plzort":"53113 Bonn","adresse":"Regina-Pacis-Weg 1"}}]}